[{"OBJECT_NAME":"CENTISPACE-1 S11","OBJECT_ID":"2025-007F","EPOCH":"2026-03-09T23:01:31.862784","MEAN_MOTION":13.8370662,"ECCENTRICITY":0.00082397,"INCLINATION":54.9766,"RA_OF_ASC_NODE":278.225,"ARG_OF_PERICENTER":269.6912,"MEAN_ANOMALY":90.3101,"EPHEMERIS_TYPE":0,"CLASSIFICATION_TYPE":"U","NORAD_CAT_ID":62580,"ELEMENT_SET_NO":999,"REV_AT_EPOCH":6102,"BSTAR":4.4311105e-5,"MEAN_MOTION_DOT":-9.2e-7,"MEAN_MOTION_DDOT":0},{"OBJECT_NAME":"NIMBUS 2 DEB","OBJECT_ID":"1966-040J","EPOCH":"2026-03-09T16:07:51.341664","MEAN_MOTION":13.88041941,"ECCENTRICITY":0.00346949,"INCLINATION":100.1222,"RA_OF_ASC_NODE":108.7607,"ARG_OF_PERICENTER":89.9985,"MEAN_ANOMALY":38.3992,"EPHEMERIS_TYPE":0,"CLASSIFICATION_TYPE":"U","NORAD_CAT_ID":26669,"ELEMENT_SET_NO":999,"REV_AT_EPOCH":27604,"BSTAR":0.0045596493,"MEAN_MOTION_DOT":5.413e-5,"MEAN_MOTION_DDOT":0}]
